37948,BEIDOU-2 IGSO-5,2011,1436.08,4200.0,+,48.54,Active,1,GSO,PRC,China,Government/Military,Navigation (Global or Regional Positioning),Long March,1 37948U 11073A   25062.56150258 -.00000122  00000+0  00000+0 0  9994,2 37948  48.5351 277.3412 0100932 219.6251 323.1178  1.00272511 48417,1.00272511,0.0100932,GSO
38091,BEIDOU-2 G5,2012,1436.14,2300.0,+,2.4,Active,1,GSO,PRC,China,Government/Military,Navigation (Global or Regional Positioning),Long March,1 38091U 12008A   25062.55429152  .00000054  00000+0  00000+0 0  9997,2 38091   2.3996  71.2471 0013363 249.2536  99.3090  1.00269099 47648,1.00269099,0.0013363,GSO
38250,BEIDOU-2 M3,2012,773.22,2200.0,+,56.15,Active,1,MEO,PRC,China,Government/Military,Navigation (Global or Regional Positioning),Long March,1 38250U 12018A   25061.20615278 -.00000058  00000+0  00000+0 0  9997,2 38250  56.1491 320.7329 0022256 273.6090  86.1921  1.86233531 87156,1.86233531,0.0022256,MEO
38251,BEIDOU-2 M4,2012,773.23,2200.0,+,56.05,Active,1,MEO,PRC,China,Government/Military,Navigation (Global or Regional Positioning),Long March,1 38251U 12018B   25062.21131157 -.00000064  00000+0  00000+0 0  9996,2 38251  56.0525 319.9509 0013253 280.0497  79.8539  1.86231987 87522,1.86231987,0.0013253,MEO
38775,BEIDOU-2 M6,2012,773.23,3800.0,+,56.13,Active,1,MEO,PRC,China,Government/Military,Navigation (Global or Regional Positioning),Long March,1 38775U 12050B   25061.38424465  .00000009  00000+0  00000+0 0  9995,2 38775  56.1288  78.5448 0013943 334.7423  25.2397  1.86230896 84524,1.86230896,0.0013943,MEO
38953,BEIDOU-2 G6,2012,1436.15,3800.0,+,3.22,Active,1,GSO,PRC,China,Government/Military,Navigation (Global or Regional Positioning),Long March,1 38953U 12059A   25062.55933057 -.00000177  00000+0  00000+0 0  9991,2 38953   3.2222  78.3285 0010311 298.2794  70.2513  1.00268022 45199,1.00268022,0.0010311,GSO
40549,BEIDOU-3S IGSO-1S,2015,1436.45,4200.0,S,50.09,Active,1,GSO,PRC,China,Government/Military,Navigation (Global or Regional Positioning),Long March,1 40549U 15019A   25061.63217911 -.00000129  00000+0  00000+0 0  9993,2 40549  50.0850 301.1215 0033861 195.2419 342.3589  1.00247422 36349,1.00247422,0.0033861,GSO
40748,BEIDOU-3S M2S,2015,773.24,800.0,S,55.28,Active,1,MEO,PRC,China,Government/Military,Navigation (Global or Regional Positioning),Long March,1 40748U 15037A   25060.26538311 -.00000050  00000+0  00000+0 0  9995,2 40748  55.2784 318.2754 0009523 271.4724  88.4771  1.86229031 65314,1.86229031,0.0009523,MEO
40749,BEIDOU-3S M1S,2015,773.14,800.0,S,55.27,Active,1,MEO,PRC,China,Government/Military,Navigation (Global or Regional Positioning),Long March,1 40749U 15037B   25062.14411905 -.00000062  00000+0  00000+0 0  9997,2 40749  55.2735 318.2041 0004507   9.6049 350.4574  1.86253612 65357,1.86253612,0.0004507,MEO
40938,BEIDOU-3S IGSO-2S,2015,1436.38,4200.0,S,49.98,Active,1,GSO,PRC,China,Government/Military,Navigation (Global or Regional Positioning),Long March,1 40938U 15053A   25043.08725264 -.00000066  00000+0  00000+0 0  9997,2 40938  49.9805 264.5883 0052128 186.8108 174.8851  1.00251841 34448,1.00251841,0.0052128,GSO
41434,BEIDOU-2 IGSO-6,2016,1436.21,4200.0,+,59.56,Active,1,GSO,PRC,China,Government/Military,Navigation (Global or Regional Positioning),Long March,1 41434U 16021A   25062.86364303 -.00000146  00000+0  00000+0 0  9994,2 41434  59.5644  42.7308 0053755 230.2011 295.5105  1.00263720 32754,1.0026372,0.0053755,GSO
