[
    {
        "OBJECT_NAME": "BEIDOU-2 IGSO-5",
        "OBJECT_ID": "2011-073A",
        "EPOCH": "2025-03-03T13:28:33.822912",
        "MEAN_MOTION": 1.00272511,
        "ECCENTRICITY": 0.0100932,
        "INCLINATION": 48.5351,
        "RA_OF_ASC_NODE": 277.3412,
        "ARG_OF_PERICENTER": 219.6251,
        "MEAN_ANOMALY": 323.1178,
        "EPHEMERIS_TYPE": 0,
        "CLASSIFICATION_TYPE": "U",
        "NORAD_CAT_ID": 37948,
        "ELEMENT_SET_NO": 999,
        "REV_AT_EPOCH": 4841,
        "BSTAR": 0,
        "MEAN_MOTION_DOT": -1.22e-06,
        "MEAN_MOTION_DDOT": 0
    },
    {
        "OBJECT_NAME": "BEIDOU-2 G5",
        "OBJECT_ID": "2012-008A",
        "EPOCH": "2025-03-03T13:18:10.787328",
        "MEAN_MOTION": 1.00269099,
        "ECCENTRICITY": 0.0013363,
        "INCLINATION": 2.3996,
        "RA_OF_ASC_NODE": 71.2471,
        "ARG_OF_PERICENTER": 249.2536,
        "MEAN_ANOMALY": 99.309,
        "EPHEMERIS_TYPE": 0,
        "CLASSIFICATION_TYPE": "U",
        "NORAD_CAT_ID": 38091,
        "ELEMENT_SET_NO": 999,
        "REV_AT_EPOCH": 4764,
        "BSTAR": 0,
        "MEAN_MOTION_DOT": 5.4e-07,
        "MEAN_MOTION_DDOT": 0
    },
    {
        "OBJECT_NAME": "BEIDOU-2 M3",
        "OBJECT_ID": "2012-018A",
        "EPOCH": "2025-03-02T04:56:51.600192",
        "MEAN_MOTION": 1.86233531,
        "ECCENTRICITY": 0.0022256,
        "INCLINATION": 56.1491,
        "RA_OF_ASC_NODE": 320.7329,
        "ARG_OF_PERICENTER": 273.609,
        "MEAN_ANOMALY": 86.1921,
        "EPHEMERIS_TYPE": 0,
        "CLASSIFICATION_TYPE": "U",
        "NORAD_CAT_ID": 38250,
        "ELEMENT_SET_NO": 999,
        "REV_AT_EPOCH": 8715,
        "BSTAR": 0,
        "MEAN_MOTION_DOT": -5.8e-07,
        "MEAN_MOTION_DDOT": 0
    },
    {
        "OBJECT_NAME": "BEIDOU-2 M4",
        "OBJECT_ID": "2012-018B",
        "EPOCH": "2025-03-03T05:04:17.319648",
        "MEAN_MOTION": 1.86231987,
        "ECCENTRICITY": 0.0013253,
        "INCLINATION": 56.0525,
        "RA_OF_ASC_NODE": 319.9509,
        "ARG_OF_PERICENTER": 280.0497,
        "MEAN_ANOMALY": 79.8539,
        "EPHEMERIS_TYPE": 0,
        "CLASSIFICATION_TYPE": "U",
        "NORAD_CAT_ID": 38251,
        "ELEMENT_SET_NO": 999,
        "REV_AT_EPOCH": 8752,
        "BSTAR": 0,
        "MEAN_MOTION_DOT": -6.4e-07,
        "MEAN_MOTION_DDOT": 0
    },
    {
        "OBJECT_NAME": "BEIDOU-2 M6",
        "OBJECT_ID": "2012-050B",
        "EPOCH": "2025-03-02T09:13:18.737760",
        "MEAN_MOTION": 1.86230896,
        "ECCENTRICITY": 0.0013943,
        "INCLINATION": 56.1288,
        "RA_OF_ASC_NODE": 78.5448,
        "ARG_OF_PERICENTER": 334.7423,
        "MEAN_ANOMALY": 25.2397,
        "EPHEMERIS_TYPE": 0,
        "CLASSIFICATION_TYPE": "U",
        "NORAD_CAT_ID": 38775,
        "ELEMENT_SET_NO": 999,
        "REV_AT_EPOCH": 8452,
        "BSTAR": 0,
        "MEAN_MOTION_DOT": 9e-08,
        "MEAN_MOTION_DDOT": 0
    },
    {
        "OBJECT_NAME": "BEIDOU-2 G6",
        "OBJECT_ID": "2012-059A",
        "EPOCH": "2025-03-03T13:25:26.161248",
        "MEAN_MOTION": 1.00268022,
        "ECCENTRICITY": 0.0010311,
        "INCLINATION": 3.2222,
        "RA_OF_ASC_NODE": 78.3285,
        "ARG_OF_PERICENTER": 298.2794,
        "MEAN_ANOMALY": 70.2513,
        "EPHEMERIS_TYPE": 0,
        "CLASSIFICATION_TYPE": "U",
        "NORAD_CAT_ID": 38953,
        "ELEMENT_SET_NO": 999,
        "REV_AT_EPOCH": 4519,
        "BSTAR": 0,
        "MEAN_MOTION_DOT": -1.77e-06,
        "MEAN_MOTION_DDOT": 0
    },
    {
        "OBJECT_NAME": "BEIDOU-3S IGSO-1S",
        "OBJECT_ID": "2015-019A",
        "EPOCH": "2025-03-02T15:10:20.275104",
        "MEAN_MOTION": 1.00247422,
        "ECCENTRICITY": 0.0033861,
        "INCLINATION": 50.085,
        "RA_OF_ASC_NODE": 301.1215,
        "ARG_OF_PERICENTER": 195.2419,
        "MEAN_ANOMALY": 342.3589,
        "EPHEMERIS_TYPE": 0,
        "CLASSIFICATION_TYPE": "U",
        "NORAD_CAT_ID": 40549,
        "ELEMENT_SET_NO": 999,
        "REV_AT_EPOCH": 3634,
        "BSTAR": 0,
        "MEAN_MOTION_DOT": -1.29e-06,
        "MEAN_MOTION_DDOT": 0
    },
    {
        "OBJECT_NAME": "BEIDOU-3S M2S",
        "OBJECT_ID": "2015-037A",
        "EPOCH": "2025-03-01T06:22:09.100704",
        "MEAN_MOTION": 1.86229031,
        "ECCENTRICITY": 0.0009523,
        "INCLINATION": 55.2784,
        "RA_OF_ASC_NODE": 318.2754,
        "ARG_OF_PERICENTER": 271.4724,
        "MEAN_ANOMALY": 88.4771,
        "EPHEMERIS_TYPE": 0,
        "CLASSIFICATION_TYPE": "U",
        "NORAD_CAT_ID": 40748,
        "ELEMENT_SET_NO": 999,
        "REV_AT_EPOCH": 6531,
        "BSTAR": 0,
        "MEAN_MOTION_DOT": -5e-07,
        "MEAN_MOTION_DDOT": 0
    },
    {
        "OBJECT_NAME": "BEIDOU-3S M1S",
        "OBJECT_ID": "2015-037B",
        "EPOCH": "2025-03-03T03:27:31.885920",
        "MEAN_MOTION": 1.86253612,
        "ECCENTRICITY": 0.0004507,
        "INCLINATION": 55.2735,
        "RA_OF_ASC_NODE": 318.2041,
        "ARG_OF_PERICENTER": 9.6049,
        "MEAN_ANOMALY": 350.4574,
        "EPHEMERIS_TYPE": 0,
        "CLASSIFICATION_TYPE": "U",
        "NORAD_CAT_ID": 40749,
        "ELEMENT_SET_NO": 999,
        "REV_AT_EPOCH": 6535,
        "BSTAR": 0,
        "MEAN_MOTION_DOT": -6.2e-07,
        "MEAN_MOTION_DDOT": 0
    },
    {
        "OBJECT_NAME": "BEIDOU-3S IGSO-2S",
        "OBJECT_ID": "2015-053A",
        "EPOCH": "2025-02-12T02:05:38.628096",
        "MEAN_MOTION": 1.00251841,
        "ECCENTRICITY": 0.0052128,
        "INCLINATION": 49.9805,
        "RA_OF_ASC_NODE": 264.5883,
        "ARG_OF_PERICENTER": 186.8108,
        "MEAN_ANOMALY": 174.8851,
        "EPHEMERIS_TYPE": 0,
        "CLASSIFICATION_TYPE": "U",
        "NORAD_CAT_ID": 40938,
        "ELEMENT_SET_NO": 999,
        "REV_AT_EPOCH": 3444,
        "BSTAR": 0,
        "MEAN_MOTION_DOT": -6.6e-07,
        "MEAN_MOTION_DDOT": 0
    },
    {
        "OBJECT_NAME": "BEIDOU-2 IGSO-6",
        "OBJECT_ID": "2016-021A",
        "EPOCH": "2025-03-03T20:43:38.757792",
        "MEAN_MOTION": 1.0026372,
        "ECCENTRICITY": 0.0053755,
        "INCLINATION": 59.5644,
        "RA_OF_ASC_NODE": 42.7308,
        "ARG_OF_PERICENTER": 230.2011,
        "MEAN_ANOMALY": 295.5105,
        "EPHEMERIS_TYPE": 0,
        "CLASSIFICATION_TYPE": "U",
        "NORAD_CAT_ID": 41434,
        "ELEMENT_SET_NO": 999,
        "REV_AT_EPOCH": 3275,
        "BSTAR": 0,
        "MEAN_MOTION_DOT": -1.46e-06,
        "MEAN_MOTION_DDOT": 0
    }
]